0 CHINASAT 1A
1 37804U 11047A   13280.91085726 -.00000347  00000-0  10000-3 0  5723
2 37804 000.0348 293.8402 0000917 315.9289 224.7131 01.00269895  7626
0 CHINASAT 1A
1 37804U 11047A   13281.91870795 -.00000350  00000-0  10000-3 0  5737
2 37804 000.0327 294.8068 0000817 308.2020 235.2852 01.00269382  7638
0 CHINASAT 1A
1 37804U 11047A   13282.94109022 -.00000353  00000-0  10000-3 0  5743
2 37804 000.0307 295.9955 0000799 306.9398 244.4132 01.00268866  7645
0 CHINASAT 1A
1 37804U 11047A   13283.31202711  .00000000  00000-0  10000-3 0  5753
2 37804 000.0246 299.0844 0000871 307.9116 014.2507 01.00265872  7642
0 CHINASAT 1A
1 37804U 11047A   13283.94613963 -.00000357  00000-0  10000-3 0  5753
2 37804 000.0288 297.0018 0000797 305.6536 247.4889 01.00268351  7656
0 CHINASAT 1A
1 37804U 11047A   13285.67346653 -.00000361  00000-0  10000-3 0  5771
2 37804 000.0304 318.9249 0000772 261.1315 173.6158 01.00268531  7679
0 CHINASAT 1A
1 37804U 11047A   13285.79726612 -.00000362  00000-0  10000-3 0  5783
2 37804 000.0286 304.7025 0000817 304.2241 189.4273 01.00267728  7670
0 CHINASAT 1A
1 37804U 11047A   13287.93681740 -.00000363  00000-0  10000-3 0  5795
2 37804 000.0363 347.3701 0000803 250.6800 252.6700 01.00271689  7691
0 CHINASAT 1A
1 37804U 11047A   13288.96137973 -.00000362  00000-0  10000-3 0  5804
2 37804 000.0367 348.2509 0000840 252.3757 259.9435 01.00271157  7709
0 CHINASAT 1A
1 37804U 11047A   13290.25774280  .00000000  00000-0  10000-3 0  5827
2 37804 000.0151 305.9288 0000714 295.2020 007.3430 01.00263180  7700
0 CHINASAT 1A
1 37804U 11047A   13290.33262579 -.00000360  00000-0  10000-3 0  5818
2 37804 000.0368 349.5565 0000973 251.7475 034.2634 01.00270698  7718
0 CHINASAT 1A
1 37804U 11047A   13291.86041074 -.00000357  00000-0  10000-3 0  5829
2 37804 000.0366 351.9520 0001023 253.5076 221.6091 01.00270080  7734
0 CHINASAT 1A
1 37804U 11047A   13292.87993095 -.00000355  00000-0  10000-3 0  5839
2 37804 000.0368 353.3523 0001065 251.7925 229.9496 01.00269645  7740
0 CHINASAT 1A
1 37804U 11047A   13293.89098263 -.00000353  00000-0  10000-3 0  5844
2 37804 000.0365 356.2339 0001147 251.1630 232.6659 01.00269279  7758
0 CHINASAT 1A
1 37804U 11047A   13294.73752814 -.00000352  00000-0  10000-3 0  5857
2 37804 000.0415 001.0652 0001052 246.5435 178.0321 01.00268566  7761
